QIANFAN-25              
1 61558U 24185G   25343.30645116  .00000764  00000+0  45881-3 0  9993
2 61558  88.9809  78.5777 0008309 334.3465  25.7304 14.05904664 69025
QIANFAN-26              
1 61559U 24185H   25343.26267770  .00000458  00000+0  44508-3 0  9990
2 61559  88.9813  80.1253 0006226  40.3522 319.8105 13.77810388 68193
QIANFAN-27              
1 61560U 24185J   25343.31336269  .00001123  00000+0  45294-3 0  9991
2 61560  88.9806  77.3447 0005866 309.1514  50.9158 14.27327591 69676
QIANFAN-28              
1 61561U 24185K   25343.29722656  .00001724  00000+0  68934-3 0  9991
2 61561  88.9824  77.3495 0005211 308.6836  51.3892 14.28025312 69683
QIANFAN-29              
1 61562U 24185L   25343.33216788  .00000287  00000+0  42516-3 0  9992
2 61562  88.9790  81.6620 0011394  67.7870 292.4489 13.51009432 67334
QIANFAN-30              
1 61563U 24185M   25343.30442402  .00000204  00000+0  30133-3 0  9995
2 61563  88.9810  81.1890 0008699  57.4286 302.7704 13.49987464 67605
QIANFAN-31              
1 61564U 24185N   25343.29301872  .00000326  00000+0  43477-3 0  9999
2 61564  88.9794  80.9978 0007933  53.3679 306.8205 13.57964597 67693
QIANFAN-32              
1 61565U 24185P   25343.27477787  .00000291  00000+0  43298-3 0  9999
2 61565  88.9853  81.3251 0011056  78.4872 281.7520 13.50734225 67577
